{
    "links": {
        "self": "http://www.neowsapp.com/rest/v1/neo/3761029?api_key=iIulBulltgU6a56xZRHN4H3l9WmuAYTsLGpBGhQ2"
    },
    "id": "3761029",
    "neo_reference_id": "3761029",
    "name": "(2016 TP56)",
    "designation": "2016 TP56",
    "nasa_jpl_url": "http://ssd.jpl.nasa.gov/sbdb.cgi?sstr=3761029",
    "absolute_magnitude_h": 24.6,
    "estimated_diameter": {
        "kilometers": {
            "estimated_diameter_min": 0.0319561887,
            "estimated_diameter_max": 0.0714562102
        },
        "meters": {
            "estimated_diameter_min": 31.9561886721,
            "estimated_diameter_max": 71.4562101727
        },
        "miles": {
            "estimated_diameter_min": 0.0198566489,
            "estimated_diameter_max": 0.0444008168
        },
        "feet": {
            "estimated_diameter_min": 104.8431420431,
            "estimated_diameter_max": 234.436392583
        }
    },
    "is_potentially_hazardous_asteroid": false,
    "close_approach_data": [
        {
            "close_approach_date": "2016-10-27",
            "close_approach_date_full": "2016-Oct-27 22:02",
            "epoch_date_close_approach": 1477605720000,
            "relative_velocity": {
                "kilometers_per_second": "6.6255370679",
                "kilometers_per_hour": "23851.9334443131",
                "miles_per_hour": "14820.6638671067"
            },
            "miss_distance": {
                "astronomical": "0.1014903784",
                "lunar": "39.4797571976",
                "kilometers": "15182744.434134008",
                "miles": "9434119.9254169904"
            },
            "orbiting_body": "Earth"
        }
    ],
    "orbital_data": {
        "orbit_id": "6",
        "orbit_determination_date": "2017-04-06 08:23:02",
        "first_observation_date": "2016-10-12",
        "last_observation_date": "2016-11-21",
        "data_arc_in_days": 40,
        "observations_used": 38,
        "orbit_uncertainty": "7",
        "minimum_orbit_intersection": ".0796501",
        "jupiter_tisserand_invariant": "3.851",
        "epoch_osculation": "2459000.5",
        "eccentricity": ".4354432471475058",
        "semi_major_axis": "1.875202905822983",
        "inclination": "5.365770755045967",
        "ascending_node_longitude": "23.55296601123321",
        "orbital_period": "937.930865423045",
        "perihelion_distance": "1.058658463450985",
        "perihelion_argument": "29.74077055874825",
        "aphelion_distance": "2.691747348194981",
        "perihelion_time": "2458642.350727498652",
        "mean_anomaly": "137.4661426056504",
        "mean_motion": ".3838235985950045",
        "equinox": "J2000",
        "orbit_class": {
            "orbit_class_type": "AMO",
            "orbit_class_description": "Near-Earth asteroid orbits similar to that of 1221 Amor",
            "orbit_class_range": "1.017 AU < q (perihelion) < 1.3 AU"
        }
    },
    "is_sentry_object": false
}